{"fetched_at":"2026-07-23T07:05:17.272Z","source":"https://celestrak.org/NORAD/elements/gp.php?GROUP=kuiper&FORMAT=JSON","constellation":"kuiper","records":[{"OBJECT_NAME":"KUIPER-00549","OBJECT_ID":"2026-140AA","EPOCH":"2026-07-22T11:51:47.215872","CLASSIFICATION_TYPE":"U","MEAN_MOTION":15.37383936,"ECCENTRICITY":0.00088491,"INCLINATION":51.8771,"RA_OF_ASC_NODE":228.1098,"ARG_OF_PERICENTER":33.4248,"MEAN_ANOMALY":326.7296,"EPHEMERIS_TYPE":0,"NORAD_CAT_ID":69616,"ELEMENT_SET_NO":999,"REV_AT_EPOCH":666,"BSTAR":0.00096792925,"MEAN_MOTION_DOT":0.00035844,"MEAN_MOTION_DDOT":0},{"OBJECT_NAME":"KUIPER-00550","OBJECT_ID":"2026-140AB","EPOCH":"2026-07-22T21:33:04.291776","CLASSIFICATION_TYPE":"U","MEAN_MOTION":15.31272588,"ECCENTRICITY":0.00091417,"INCLINATION":51.8775,"RA_OF_ASC_NODE":227.0443,"ARG_OF_PERICENTER":85.5755,"MEAN_ANOMALY":274.6274,"EPHEMERIS_TYPE":0,"NORAD_CAT_ID":69617,"ELEMENT_SET_NO":999,"REV_AT_EPOCH":671,"BSTAR":0.00071839974,"MEAN_MOTION_DOT":0.00021739,"MEAN_MOTION_DDOT":0},{"OBJECT_NAME":"KUIPER-00551","OBJECT_ID":"2026-140AC","EPOCH":"2026-07-22T07:58:02.293536","CLASSIFICATION_TYPE":"U","MEAN_MOTION":15.38378805,"ECCENTRICITY":0.00123573,"INCLINATION":51.8767,"RA_OF_ASC_NODE":228.528,"ARG_OF_PERICENTER":305.6164,"MEAN_ANOMALY":54.3672,"EPHEMERIS_TYPE":0,"NORAD_CAT_ID":69618,"ELEMENT_SET_NO":999,"REV_AT_EPOCH":664,"BSTAR":0.00078891885,"MEAN_MOTION_DOT":0.00030123,"MEAN_MOTION_DDOT":0},{"OBJECT_NAME":"KUIPER-00554","OBJECT_ID":"2026-140AD","EPOCH":"2026-07-22T08:08:04.529184","CLASSIFICATION_TYPE":"U","MEAN_MOTION":15.38111705,"ECCENTRICITY":0.00108218,"INCLINATION":51.8763,"RA_OF_ASC_NODE":228.572,"ARG_OF_PERICENTER":319.6883,"MEAN_ANOMALY":40.3301,"EPHEMERIS_TYPE":0,"NORAD_CAT_ID":69619,"ELEMENT_SET_NO":999,"REV_AT_EPOCH":664,"BSTAR":0.00074599246,"MEAN_MOTION_DOT":0.00028189,"MEAN_MOTION_DDOT":0},{"OBJECT_NAME":"KUIPER-00555","OBJECT_ID":"2026-140AE","EPOCH":"2026-07-22T18:59:44.667744","CLASSIFICATION_TYPE":"U","MEAN_MOTION":15.37894272,"ECCENTRICITY":0.00113007,"INCLINATION":51.8812,"RA_OF_ASC_NODE":226.3693,"ARG_OF_PERICENTER":308.064,"MEAN_ANOMALY":51.9327,"EPHEMERIS_TYPE":0,"NORAD_CAT_ID":69620,"ELEMENT_SET_NO":999,"REV_AT_EPOCH":671,"BSTAR":0.00066913489,"MEAN_MOTION_DOT":0.00025057,"MEAN_MOTION_DDOT":0},{"OBJECT_NAME":"KUIPER-00556","OBJECT_ID":"2026-140AF","EPOCH":"2026-07-22T09:34:03.798912","CLASSIFICATION_TYPE":"U","MEAN_MOTION":15.38391343,"ECCENTRICITY":0.00126854,"INCLINATION":51.8817,"RA_OF_ASC_NODE":228.2284,"ARG_OF_PERICENTER":290.9508,"MEAN_ANOMALY":69.0121,"EPHEMERIS_TYPE":0,"NORAD_CAT_ID":69621,"ELEMENT_SET_NO":999,"REV_AT_EPOCH":665,"BSTAR":0.00071570792,"MEAN_MOTION_DOT":0.00027295,"MEAN_MOTION_DDOT":0},{"OBJECT_NAME":"KUIPER-00557","OBJECT_ID":"2026-140AG","EPOCH":"2026-07-22T08:19:57.205632","CLASSIFICATION_TYPE":"U","MEAN_MOTION":15.37592186,"ECCENTRICITY":0.00091964,"INCLINATION":51.8785,"RA_OF_ASC_NODE":228.6334,"ARG_OF_PERICENTER":328.9216,"MEAN_ANOMALY":31.1225,"EPHEMERIS_TYPE":0,"NORAD_CAT_ID":69622,"ELEMENT_SET_NO":999,"REV_AT_EPOCH":664,"BSTAR":0.0009026997,"MEAN_MOTION_DOT":0.00033624,"MEAN_MOTION_DDOT":0},{"OBJECT_NAME":"KUIPER-00560","OBJECT_ID":"2026-140AH","EPOCH":"2026-07-22T19:05:26.330496","CLASSIFICATION_TYPE":"U","MEAN_MOTION":15.36978966,"ECCENTRICITY":0.00098066,"INCLINATION":51.8766,"RA_OF_ASC_NODE":226.3827,"ARG_OF_PERICENTER":339.5612,"MEAN_ANOMALY":20.4981,"EPHEMERIS_TYPE":0,"NORAD_CAT_ID":69623,"ELEMENT_SET_NO":999,"REV_AT_EPOCH":671,"BSTAR":0.00069155618,"MEAN_MOTION_DOT":0.00025132,"MEAN_MOTION_DDOT":0},{"OBJECT_NAME":"KUIPER-00561","OBJECT_ID":"2026-140AJ","EPOCH":"2026-07-22T08:00:47.561184","CLASSIFICATION_TYPE":"U","MEAN_MOTION":15.38859542,"ECCENTRICITY":0.00084554,"INCLINATION":51.8809,"RA_OF_ASC_NODE":228.5539,"ARG_OF_PERICENTER":331.3529,"MEAN_ANOMALY":28.6992,"EPHEMERIS_TYPE":0,"NORAD_CAT_ID":69624,"ELEMENT_SET_NO":999,"REV_AT_EPOCH":664,"BSTAR":0.0008903613,"MEAN_MOTION_DOT":0.00034566,"MEAN_MOTION_DDOT":0},{"OBJECT_NAME":"KUIPER-00564","OBJECT_ID":"2026-140AK","EPOCH":"2026-07-22T11:24:52.574400","CLASSIFICATION_TYPE":"U","MEAN_MOTION":15.3754118,"ECCENTRICITY":0.00082494,"INCLINATION":51.8798,"RA_OF_ASC_NODE":227.9944,"ARG_OF_PERICENTER":301.7989,"MEAN_ANOMALY":58.2194,"EPHEMERIS_TYPE":0,"NORAD_CAT_ID":69625,"ELEMENT_SET_NO":999,"REV_AT_EPOCH":666,"BSTAR":0.0040584136,"MEAN_MOTION_DOT":0.00154696,"MEAN_MOTION_DDOT":0},{"OBJECT_NAME":"KUIPER-00567","OBJECT_ID":"2026-140AL","EPOCH":"2026-07-22T11:03:41.283072","CLASSIFICATION_TYPE":"U","MEAN_MOTION":15.38429864,"ECCENTRICITY":0.00135543,"INCLINATION":51.8768,"RA_OF_ASC_NODE":227.8903,"ARG_OF_PERICENTER":294.6025,"MEAN_ANOMALY":65.355,"EPHEMERIS_TYPE":0,"NORAD_CAT_ID":69626,"ELEMENT_SET_NO":999,"REV_AT_EPOCH":666,"BSTAR":0.00074782948,"MEAN_MOTION_DOT":0.0002859,"MEAN_MOTION_DDOT":0},{"OBJECT_NAME":"KUIPER-00573","OBJECT_ID":"2026-140AM","EPOCH":"2026-07-22T06:51:44.655264","CLASSIFICATION_TYPE":"U","MEAN_MOTION":15.37619595,"ECCENTRICITY":0.00101313,"INCLINATION":51.8768,"RA_OF_ASC_NODE":228.9636,"ARG_OF_PERICENTER":317.7044,"MEAN_ANOMALY":42.3161,"EPHEMERIS_TYPE":0,"NORAD_CAT_ID":69627,"ELEMENT_SET_NO":999,"REV_AT_EPOCH":663,"BSTAR":0.00074374518,"MEAN_MOTION_DOT":0.00027644,"MEAN_MOTION_DDOT":0},{"OBJECT_NAME":"KUIPER-00258","OBJECT_ID":"2026-151A","EPOCH":"2026-07-22T13:25:48.088704","CLASSIFICATION_TYPE":"U","MEAN_MOTION":15.34493896,"ECCENTRICITY":0.00110298,"INCLINATION":51.8686,"RA_OF_ASC_NODE":145.0789,"ARG_OF_PERICENTER":190.9339,"MEAN_ANOMALY":169.1408,"EPHEMERIS_TYPE":0,"NORAD_CAT_ID":69763,"ELEMENT_SET_NO":999,"REV_AT_EPOCH":314,"BSTAR":-0.0022634893,"MEAN_MOTION_DOT":-0.00076554,"MEAN_MOTION_DDOT":0},{"OBJECT_NAME":"KUIPER-00526","OBJECT_ID":"2026-151B","EPOCH":"2026-07-22T20:00:01.999872","CLASSIFICATION_TYPE":"U","MEAN_MOTION":15.33509703,"ECCENTRICITY":0.00055519,"INCLINATION":51.8773,"RA_OF_ASC_NODE":143.4864,"ARG_OF_PERICENTER":163.2097,"MEAN_ANOMALY":48.8762,"EPHEMERIS_TYPE":0,"NORAD_CAT_ID":69764,"ELEMENT_SET_NO":999,"REV_AT_EPOCH":331,"BSTAR":-0.014410192,"MEAN_MOTION_DOT":-0.00447425,"MEAN_MOTION_DDOT":0},{"OBJECT_NAME":"KUIPER-00558","OBJECT_ID":"2026-151C","EPOCH":"2026-07-22T20:00:01.999872","CLASSIFICATION_TYPE":"U","MEAN_MOTION":15.27528393,"ECCENTRICITY":0.00070215,"INCLINATION":51.8807,"RA_OF_ASC_NODE":143.7809,"ARG_OF_PERICENTER":178.9185,"MEAN_ANOMALY":245.1685,"EPHEMERIS_TYPE":0,"NORAD_CAT_ID":69765,"ELEMENT_SET_NO":999,"REV_AT_EPOCH":379,"BSTAR":-0.0080958916,"MEAN_MOTION_DOT":-0.0021537,"MEAN_MOTION_DDOT":0},{"OBJECT_NAME":"KUIPER-00569","OBJECT_ID":"2026-151D","EPOCH":"2026-07-22T08:02:56.868288","CLASSIFICATION_TYPE":"U","MEAN_MOTION":15.37594248,"ECCENTRICITY":0.00046711,"INCLINATION":51.8785,"RA_OF_ASC_NODE":145.8461,"ARG_OF_PERICENTER":159.8688,"MEAN_ANOMALY":200.2484,"EPHEMERIS_TYPE":0,"NORAD_CAT_ID":69766,"ELEMENT_SET_NO":999,"REV_AT_EPOCH":311,"BSTAR":0.00057586767,"MEAN_MOTION_DOT":0.00021253,"MEAN_MOTION_DDOT":0}]}
