{"epoch":1784799577,"count":18318,"objects":[{"id":"69616","name":"KUIPER-00549","type":"PAYLOAD","l1":"1 69616U 26140AA  26203.49429648  .00035844  00000-0  96793-3 0  9991","l2":"2 69616  51.8771 228.1098 0008849  33.4248 326.7296 15.37383936  6663"},{"id":"69617","name":"KUIPER-00550","type":"PAYLOAD","l1":"1 69617U 26140AB  26203.89796634  .00021739  00000-0  71840-3 0  9992","l2":"2 69617  51.8775 227.0443 0009142  85.5755 274.6274 15.31272588  6715"},{"id":"69618","name":"KUIPER-00551","type":"PAYLOAD","l1":"1 69618U 26140AC  26203.33197099  .00030123  00000-0  78892-3 0  9993","l2":"2 69618  51.8767 228.5280 0012357 305.6164  54.3672 15.38378805  6647"},{"id":"69619","name":"KUIPER-00554","type":"PAYLOAD","l1":"1 69619U 26140AD  26203.33894131  .00028189  00000-0  74599-3 0  9994","l2":"2 69619  51.8763 228.5720 0010822 319.6883  40.3301 15.38111705  6649"},{"id":"69620","name":"KUIPER-00555","type":"PAYLOAD","l1":"1 69620U 26140AE  26203.79148921  .00025057  00000-0  66913-3 0  9997","l2":"2 69620  51.8812 226.3693 0011301 308.0640  51.9327 15.37894272  6717"},{"id":"69621","name":"KUIPER-00556","type":"PAYLOAD","l1":"1 69621U 26140AF  26203.39865508  .00027295  00000-0  71571-3 0  9993","l2":"2 69621  51.8817 228.2284 0012685 290.9508  69.0121 15.38391343  6655"},{"id":"69622","name":"KUIPER-00557","type":"PAYLOAD","l1":"1 69622U 26140AG  26203.34718988  .00033624  00000-0  90270-3 0  9998","l2":"2 69622  51.8785 228.6334 0009196 328.9216  31.1225 15.37592186  6642"},{"id":"69623","name":"KUIPER-00560","type":"PAYLOAD","l1":"1 69623U 26140AH  26203.79544364  .00025132  00000-0  69156-3 0  9997","l2":"2 69623  51.8766 226.3827 0009807 339.5612  20.4981 15.36978966  6712"},{"id":"69624","name":"KUIPER-00561","type":"PAYLOAD","l1":"1 69624U 26140AJ  26203.33388381  .00034566  00000-0  89036-3 0  9993","l2":"2 69624  51.8809 228.5539 0008455 331.3529  28.6992 15.38859542  6644"},{"id":"69625","name":"KUIPER-00564","type":"PAYLOAD","l1":"1 69625U 26140AK  26203.47560850  .00154696  00000-0  40584-2 0  9993","l2":"2 69625  51.8798 227.9944 0008249 301.7989  58.2194 15.37541180  6667"},{"id":"69626","name":"KUIPER-00567","type":"PAYLOAD","l1":"1 69626U 26140AL  26203.46089448  .00028590  00000-0  74783-3 0  9994","l2":"2 69626  51.8768 227.8903 0013554 294.6025  65.3550 15.38429864  6665"},{"id":"69627","name":"KUIPER-00573","type":"PAYLOAD","l1":"1 69627U 26140AM  26203.28593351  .00027644  00000-0  74375-3 0  9994","l2":"2 69627  51.8768 228.9636 0010131 317.7044  42.3161 15.37619595  6638"},{"id":"69763","name":"KUIPER-00258","type":"PAYLOAD","l1":"1 69763U 26151A   26203.55958436 -.00076554  00000-0 -22635-2 0  9993","l2":"2 69763  51.8686 145.0789 0011030 190.9339 169.1408 15.34493896  3149"},{"id":"69764","name":"KUIPER-00526","type":"PAYLOAD","l1":"1 69764U 26151B   26203.83335648 -.00447425  00000-0 -14410-1 0  9999","l2":"2 69764  51.8773 143.4864 0005552 163.2097  48.8762 15.33509703  3318"},{"id":"69765","name":"KUIPER-00558","type":"PAYLOAD","l1":"1 69765U 26151C   26203.83335648 -.00215370  00000-0 -80959-2 0  9994","l2":"2 69765  51.8807 143.7809 0007022 178.9185 245.1685 15.27528393  3791"},{"id":"69766","name":"KUIPER-00569","type":"PAYLOAD","l1":"1 69766U 26151D   26203.33538042  .00021253  00000-0  57587-3 0  9998","l2":"2 69766  51.8785 145.8461 0004671 159.8688 200.2484 15.37594248  3115"}]}